ISS (ZARYA)             
1 25544U 98067A   25310.93718524  .00010004  00000+0  18426-3 0  9998
2 25544  51.6334 319.7134 0005156  25.1218 335.0021 15.49804267537306
ISS (NAUKA)             
1 49044U 21066A   25310.93718525  .00010004  00000+0  18426-3 0  9995
2 49044  51.6334 319.7134 0005156  25.1218 335.0021 15.49804267230442
CSS (WENTIAN)           
1 53239U 22085A   25310.84814980  .00035789  00000+0  42324-3 0  9991
2 53239  41.4667 234.6537 0005753 334.9665  25.0894 15.60542316173842
CSS (MENGTIAN)          
1 54216U 22143A   25310.84814980  .00035789  00000+0  42324-3 0  9992
2 54216  41.4667 234.6537 0005753 334.9665  25.0894 15.60542316158649
SOYUZ-MS 27             
1 63520U 25072A   25310.93718525  .00010004  00000+0  18426-3 0  9991
2 63520  51.6334 319.7134 0005156  25.1218 335.0021 15.49804267 20208
SHENZHOU-20 (SZ-20)     
1 63632U 25082A   25310.84814980  .00035789  00000+0  42324-3 0  9999
2 63632  41.4667 234.6537 0005753 334.9665  25.0894 15.60542316255302
PROGRESS-MS 31          
1 64751U 25146A   25310.93718525  .00010004  00000+0  18426-3 0  9990
2 64751  51.6334 319.7134 0005156  25.1218 335.0021 15.49804267  6759
TIANZHOU-9              
1 64786U 25149A   25310.84814980  .00035789  00000+0  42324-3 0  9994
2 64786  41.4667 234.6537 0005753 334.9665  25.0894 15.60542316255303
CREW DRAGON 11          
1 65077U 25166A   25310.93718525  .00010004  00000+0  18426-3 0  9994
2 65077  51.6334 319.7134 0005156  25.1218 335.0021 15.49804267  2140
DRAGON CRS-33           
1 65304U 25186A   25310.93718525  .00010004  00000+0  18426-3 0  9999
2 65304  51.6334 319.7134 0005156  25.1218 335.0021 15.49804267   118
